{
  "links" : {
    "next" : "https://api.nasa.gov/neo/rest/v1/neo/browse?page=22&size=20&api_key=jqAGvNAwUIBu4fl9FSOjdm3V4F7hIglRzI6pdX9d",
    "prev" : "https://api.nasa.gov/neo/rest/v1/neo/browse?page=20&size=20&api_key=jqAGvNAwUIBu4fl9FSOjdm3V4F7hIglRzI6pdX9d",
    "self" : "https://api.nasa.gov/neo/rest/v1/neo/browse?page=21&size=20&api_key=jqAGvNAwUIBu4fl9FSOjdm3V4F7hIglRzI6pdX9d"
  },
  "page" : {
    "size" : 20,
    "total_elements" : 20750,
    "total_pages" : 1038,
    "number" : 21
  },
  "near_earth_objects" : [ {
    "links" : {
      "self" : "https://api.nasa.gov/neo/rest/v1/neo/3283479?api_key=jqAGvNAwUIBu4fl9FSOjdm3V4F7hIglRzI6pdX9d"
    },
    "neo_reference_id" : "3283479",
    "name" : "(2005 NK1)",
    "nasa_jpl_url" : "http://ssd.jpl.nasa.gov/sbdb.cgi?sstr=3283479",
    "absolute_magnitude_h" : 17.2,
    "estimated_diameter" : {
      "kilometers" : {
        "estimated_diameter_min" : 0.9650614696,
        "estimated_diameter_max" : 2.1579430484
      },
      "meters" : {
        "estimated_diameter_min" : 965.0614695789,
        "estimated_diameter_max" : 2157.9430484443
      },
      "miles" : {
        "estimated_diameter_min" : 0.5996612104,
        "estimated_diameter_max" : 1.34088323
      },
      "feet" : {
        "estimated_diameter_min" : 3166.2122718533,
        "estimated_diameter_max" : 7079.8658710581
      }
    },
    "is_potentially_hazardous_asteroid" : false,
    "close_approach_data" : [ {
      "close_approach_date" : "2035-05-25",
      "epoch_date_close_approach" : 2063689200000,
      "relative_velocity" : {
        "kilometers_per_second" : "25.5578406457",
        "kilometers_per_hour" : "92008.2263243861",
        "miles_per_hour" : "57170.3337402831"
      },
      "miss_distance" : {
        "astronomical" : "0.4943067021",
        "lunar" : "192.2853088379",
        "kilometers" : "73947232",
        "miles" : "45948680"
      },
      "orbiting_body" : "Earth"
    }, {
      "close_approach_date" : "2100-05-24",
      "epoch_date_close_approach" : 4114825200000,
      "relative_velocity" : {
        "kilometers_per_second" : "23.9221964939",
        "kilometers_per_hour" : "86119.9073778769",
        "miles_per_hour" : "53511.5613371036"
      },
      "miss_distance" : {
        "astronomical" : "0.4897754613",
        "lunar" : "190.522644043",
        "kilometers" : "73269368",
        "miles" : "45527472"
      },
      "orbiting_body" : "Earth"
    }, {
      "close_approach_date" : "2165-05-22",
      "epoch_date_close_approach" : 6165874800000,
      "relative_velocity" : {
        "kilometers_per_second" : "22.2137526568",
        "kilometers_per_hour" : "79969.5095645959",
        "miles_per_hour" : "49689.9433180679"
      },
      "miss_distance" : {
        "astronomical" : "0.493064069",
        "lunar" : "191.8019256592",
        "kilometers" : "73761336",
        "miles" : "45833168"
      },
      "orbiting_body" : "Earth"
    }, {
      "close_approach_date" : "2167-05-30",
      "epoch_date_close_approach" : 6229638000000,
      "relative_velocity" : {
        "kilometers_per_second" : "27.3198599353",
        "kilometers_per_hour" : "98351.4957669774",
        "miles_per_hour" : "61111.7946892088"
      },
      "miss_distance" : {
        "astronomical" : "0.489294588",
        "lunar" : "190.3356018066",
        "kilometers" : "73197432",
        "miles" : "45482772"
      },
      "orbiting_body" : "Earth"
    } ],
    "orbital_data" : {
      "orbit_id" : "16",
      "orbit_determination_date" : "2016-08-08 06:18:22",
      "first_observation_date" : null,
      "last_observation_date" : null,
      "data_arc_in_days" : null,
      "observations_used" : null,
      "orbit_uncertainty" : "1",
      "minimum_orbit_intersection" : ".495213",
      "jupiter_tisserand_invariant" : "3.879",
      "epoch_osculation" : "2457600.5",
      "eccentricity" : ".7268545005040368",
      "semi_major_axis" : "1.604072631859067",
      "inclination" : "33.56940565979437",
      "ascending_node_longitude" : "113.7258318882027",
      "orbital_period" : "742.0522231027452",
      "perihelion_distance" : ".4381452202569491",
      "perihelion_argument" : "10.09475950838179",
      "aphelion_distance" : "2.770000043461184",
      "perihelion_time" : "2457742.196177406638",
      "mean_anomaly" : "291.2573666943565",
      "mean_motion" : ".4851410571815699",
      "equinox" : "J2000",
      "orbit_class" : null
    },
    "is_sentry_object" : false
  }, {
    "links" : {
      "self" : "https://api.nasa.gov/neo/rest/v1/neo/3283520?api_key=jqAGvNAwUIBu4fl9FSOjdm3V4F7hIglRzI6pdX9d"
    },
    "neo_reference_id" : "3283520",
    "name" : "(2005 NQ1)",
    "designation" : "2005 NQ1",
    "nasa_jpl_url" : "http://ssd.jpl.nasa.gov/sbdb.cgi?sstr=3283520",
    "absolute_magnitude_h" : 24.0,
    "estimated_diameter" : {
      "kilometers" : {
        "estimated_diameter_min" : 0.0421264611,
        "estimated_diameter_max" : 0.0941976306
      },
      "meters" : {
        "estimated_diameter_min" : 42.1264610556,
        "estimated_diameter_max" : 94.1976305719
      },
      "miles" : {
        "estimated_diameter_min" : 0.0261761612,
        "estimated_diameter_max" : 0.0585316759
      },
      "feet" : {
        "estimated_diameter_min" : 138.2101784897,
        "estimated_diameter_max" : 309.0473542854
      }
    },
    "is_potentially_hazardous_asteroid" : false,
    "close_approach_data" : [ {
      "close_approach_date" : "2005-06-30",
      "epoch_date_close_approach" : 1120114800000,
      "relative_velocity" : {
        "kilometers_per_second" : "7.4087832622",
        "kilometers_per_hour" : "26671.6197438578",
        "miles_per_hour" : "16572.7072791765"
      },
      "miss_distance" : {
        "astronomical" : "0.0994732139",
        "lunar" : "38.6950798035",
        "kilometers" : "14880981",
        "miles" : "9246613"
      },
      "orbiting_body" : "Earth"
    } ],
    "orbital_data" : {
      "orbit_id" : "8",
      "orbit_determination_date" : "2017-04-06 09:10:48",
      "first_observation_date" : "2005-07-04",
      "last_observation_date" : "2005-07-07",
      "data_arc_in_days" : 3,
      "observations_used" : 22,
      "orbit_uncertainty" : "8",
      "minimum_orbit_intersection" : ".0911591",
      "jupiter_tisserand_invariant" : "3.587",
      "epoch_osculation" : "2453556.5",
      "eccentricity" : ".4715909007013135",
      "semi_major_axis" : "2.094732770788842",
      "inclination" : "9.714463452238196",
      "ascending_node_longitude" : "105.803468405776",
      "orbital_period" : "1107.366465052616",
      "perihelion_distance" : "1.106875856683974",
      "perihelion_argument" : "173.8289999212244",
      "aphelion_distance" : "3.08258968489371",
      "perihelion_time" : "2453550.923446119320",
      "mean_anomaly" : "1.812913304133164",
      "mean_motion" : ".3250956312668316",
      "equinox" : "J2000",
      "orbit_class" : {
        "orbit_class_type" : "AMO",
        "orbit_class_range" : "1.017 AU < q (perihelion) < 1.3 AU",
        "orbit_class_description" : "Near-Earth asteroid orbits similar to that of 1221 Amor"
      }
    },
    "is_sentry_object" : false
  } ]
}